{"TopicId":152503,"ForumId":16,"TopicTitle":"Looking for consistent ways to reach orbit from Kerbin relay network","CreatedByName":"ajburges","CreatedById":26570,"CreatedDateTime":"2016-11-23T23:18:03Z","PageNum":1,"Articles":[{"CreatedByName":"ajburges","CreatedById":26570,"CreatedDateTime":"2016-11-23T23:18:03Z","Content":"\n\u003Cp\u003E\nI\u0027m planning on launching a Kerbin based Draim Tetrahedron relay network before turning off DSN in my career settings. Given the circumstances of the location, 4 separate launches would be the most efficient way to deliver the satellites (as no orbital planes are shared between relays). Timing my launches for correct orbital planes sounds easy enough, but I don\u0027t know how I can keep the launches\u00A0consistent enough for synchronized relay placement. Does anybody know of anything that can (or help) launch payloads into consistent orbits or should I just synchronize orbits with a T/(2*n)\u00A0reference orbit before final placement maneuvers (including phase correction orbits)? Alternatively, I could just throw money at the problem and use the same system I used to seed the Mun and Minmus with their networks.\n\u003C/p\u003E\n"},{"CreatedByName":"Chiron0224","CreatedById":147812,"CreatedDateTime":"2016-11-23T23:50:03Z","Content":"\n\u003Cp\u003E\nMechjeb has an autopilot feature which could be used to launch consistently.\u00A0 Not sure if you consider that cheating but bear in mind that these are unmanned craft and would fly mostly by programmed autopilot in real life anyhow.\n\u003C/p\u003E\n"},{"CreatedByName":"DrLicor","CreatedById":165712,"CreatedDateTime":"2016-11-24T06:45:21Z","Content":"\n\u003Cp\u003E\nWhat I used to do is launch them all in one go, but it isn\u0027t necessary indeed.\u003Cbr\u003E\nThe\u00A0most important thing about a sat network, is \u003Cu\u003E\u003Cstrong\u003Eorbital time.\u003C/strong\u003E\u003C/u\u003E\n\u003C/p\u003E\n\u003Cp\u003E\nBy saying you want to do them in separate launches, a bit of your consistent sats is thrown away. But that doesn\u0027t wipe away the effectivity and look of your\u00A0sats, at least, if you don\u0027t have OCD \u003Cimg alt=\u0022:)\u0022 data-emoticon=\u0022\u0022 src=\u0022//kerbal-forum-uploads.s3.us-west-2.amazonaws.com/emoticons/default_k_smiley.gif\u0022 title=\u0022:)\u0022\u003E\u003C/p\u003E\n\u003Cp\u003E\n\u00A0\n\u003C/p\u003E\n\u003Cp\u003E\nAnyway, if you install \u003Ca href=\u0022https://forum.kerbalspaceprogram.com/index.php?/topic/17833-111-kerbal-engineer-redux-1110-2016-04-29/\u0022 rel=\u0022\u0022\u003E\u003Cabbr title=\u0022Kerbal Engineer Redux (mod)\u0022\u003EKER\u003C/abbr\u003E\u003C/a\u003E, you\u0027ll be fine.\u00A0\u00A0With some calculation of the launch time, but that up to you, you will get your consistent sat network. Just make sure you that the orbits of the sat end up with the same orbital time. When missing 2sec, your sat will drift off.. \u003Cabbr title=\u0022Kerbal Engineer Redux (mod)\u0022\u003EKER\u003C/abbr\u003E displays your time on 3 decimals if I\u0027m right, if your get them all the same for each sat, they will stay the same position for at least\u00A0100years.\n\u003C/p\u003E\n\u003Cp\u003E\nA higher orbit is better, 0,001 sec difference is a\u00A0tiny factor for a 6hour orbit but a less tiny factor for a 30min orbit.\u00A0You can achieve those very perfect numbers by setting your \u003Cabbr title=\u0022Reaction Control System\u0022\u003ERCS\u003C/abbr\u003E\u00A0to 0.5% or 1% thrust. Go to docking mode and keep changing the your orbit with Shift and Ctrl, while heading prograde, until\u00A0you have those perfect numbers you want. That\u0027s the most important consistent\u00A0part you want for your sat network.\u00A0\u00A0\u00A0\n\u003C/p\u003E\n\u003Cp\u003E\nInstall \u003Ca href=\u0022https://forum.kerbalspaceprogram.com/index.php?/topic/22809-12x-kerbal-alarm-clock-v3810-october-28/\u0022 rel=\u0022\u0022\u003Ekerbal alarm clock\u003C/a\u003E\u00A0too, for the timing of your launches.\n\u003C/p\u003E\n\u003Cp\u003E\nAlsooo, maybe this forum thread can help you:\n\u003C/p\u003E\n\u003Ciframe data-embedcontent=\u0022\u0022 frameborder=\u00220\u0022 src=\u0022https://forum.kerbalspaceprogram.com/index.php?/topic/31013-scenariotetrahedral-satellite-configuration-4-sat-full-surface-coverage/\u0026amp;do=embed\u0022\u003E\u003C/iframe\u003E\n\u003Cp\u003E\n\u00A0\n\u003C/p\u003E\n"},{"CreatedByName":"Sharpy","CreatedById":145504,"CreatedDateTime":"2016-11-24T15:19:00Z","Content":"\n\u003Cp\u003E\nNice.\n\u003C/p\u003E\n\u003Cp\u003E\nLet me \u0022migrate\u0022 the old broken table to new forum format for future reference.\n\u003C/p\u003E\n\u003Ctable border=\u00221\u0022 cellpadding=\u00221\u0022 cellspacing=\u00221\u0022 width=\u0022905\u0022 style=\u0022height:188px;\u0022\u003E\u003Cthead\u003E\u003Ctr\u003E\u003Cth scope=\u0022row\u0022\u003E\nTarget Orbital Elements\n\u003C/th\u003E\n\u003Cth scope=\u0022col\u0022\u003E\nMarker 1\n\u003C/th\u003E\n\u003Cth scope=\u0022col\u0022\u003E\nMarker 2\n\u003C/th\u003E\n\u003Cth scope=\u0022col\u0022\u003E\nMarker 3\n\u003C/th\u003E\n\u003Cth scope=\u0022col\u0022\u003E\nMarker 4\n\u003C/th\u003E\n\u003C/tr\u003E\u003C/thead\u003E\u003Ctbody\u003E\u003Ctr\u003E\u003Cth scope=\u0022row\u0022\u003E\n\u003Ca href=\u0022https://en.wikipedia.org/wiki/Semi-major_axis\u0022 rel=\u0022external nofollow\u0022\u003ESemimajor Axis (m)\u003C/a\u003E\n\u003C/th\u003E\n\u003Ctd\u003E\n4350000\n\u003C/td\u003E\n\u003Ctd\u003E\n4350000\n\u003C/td\u003E\n\u003Ctd\u003E\n4350000\n\u003C/td\u003E\n\u003Ctd\u003E\n4350000\n\u003C/td\u003E\n\u003C/tr\u003E\u003Ctr\u003E\u003Cth scope=\u0022row\u0022\u003E\n\u003Ca href=\u0022https://en.wikipedia.org/wiki/Orbital_eccentricity\u0022 rel=\u0022external nofollow\u0022\u003EEccentricity\u003C/a\u003E\n\u003C/th\u003E\n\u003Ctd\u003E\n0.28\n\u003C/td\u003E\n\u003Ctd\u003E\n0.28\n\u003C/td\u003E\n\u003Ctd\u003E\n0.28\n\u003C/td\u003E\n\u003Ctd\u003E\n0.28\n\u003C/td\u003E\n\u003C/tr\u003E\u003Ctr\u003E\u003Cth scope=\u0022row\u0022\u003E\n\u003Ca href=\u0022https://en.wikipedia.org/wiki/Orbital_inclination\u0022 rel=\u0022external nofollow\u0022\u003EInclination\u003C/a\u003E\n\u003C/th\u003E\n\u003Ctd\u003E\n33\u00B0\n\u003C/td\u003E\n\u003Ctd\u003E\n33\u00B0\n\u003C/td\u003E\n\u003Ctd\u003E\n33\u00B0\n\u003C/td\u003E\n\u003Ctd\u003E\n33\u00B0\n\u003C/td\u003E\n\u003C/tr\u003E\u003Ctr\u003E\u003Cth scope=\u0022row\u0022\u003E\n\u003Ca href=\u0022https://en.wikipedia.org/wiki/Argument_of_periapsis\u0022 rel=\u0022external nofollow\u0022\u003EArgument of periapsis\u003C/a\u003E\n\u003C/th\u003E\n\u003Ctd\u003E\n270\u00B0\n\u003C/td\u003E\n\u003Ctd\u003E\n90\u00B0\n\u003C/td\u003E\n\u003Ctd\u003E\n270\u00B0\n\u003C/td\u003E\n\u003Ctd\u003E\n90\u00B0\n\u003C/td\u003E\n\u003C/tr\u003E\u003Ctr\u003E\u003Cth scope=\u0022row\u0022\u003E\n\u003Ca href=\u0022https://en.wikipedia.org/wiki/Longitude_of_the_ascending_node\u0022 rel=\u0022external nofollow\u0022\u003ELongitude of the ascending node\u003C/a\u003E\n\u003C/th\u003E\n\u003Ctd\u003E\n0\n\u003C/td\u003E\n\u003Ctd\u003E\n90\n\u003C/td\u003E\n\u003Ctd\u003E\n180\n\u003C/td\u003E\n\u003Ctd\u003E\n270\n\u003C/td\u003E\n\u003C/tr\u003E\u003Ctr\u003E\u003Cth scope=\u0022row\u0022\u003E\n\u003Ca href=\u0022https://en.wikipedia.org/wiki/Mean_anomaly\u0022 rel=\u0022external nofollow\u0022\u003EMean Anomaly at Epoch\u003C/a\u003E\n\u003C/th\u003E\n\u003Ctd\u003E\n0\n\u003C/td\u003E\n\u003Ctd\u003E\n-1.57078\n\u003C/td\u003E\n\u003Ctd\u003E\n3.14159\n\u003C/td\u003E\n\u003Ctd\u003E\n1.57078\n\u003C/td\u003E\n\u003C/tr\u003E\u003Ctr\u003E\u003Cth scope=\u0022row\u0022\u003E\n\u003Ca href=\u0022https://en.wikipedia.org/wiki/Epoch_%28astronomy%29\u0022 rel=\u0022external nofollow\u0022\u003EEpoch\u003C/a\u003E\n\u003C/th\u003E\n\u003Ctd\u003E\n0\n\u003C/td\u003E\n\u003Ctd\u003E\n0\n\u003C/td\u003E\n\u003Ctd\u003E\n0\n\u003C/td\u003E\n\u003Ctd\u003E\n0\n\u003C/td\u003E\n\u003C/tr\u003E\u003C/tbody\u003E\u003C/table\u003E\u003Cp\u003E\n\u00A0\n\u003C/p\u003E\n"},{"CreatedByName":"ajburges","CreatedById":26570,"CreatedDateTime":"2016-11-25T00:08:37Z","Content":"\n\u003Cblockquote class=\u0022ipsQuote\u0022 data-ipsquote=\u0022\u0022 data-ipsquote-contentapp=\u0022forums\u0022 data-ipsquote-contentclass=\u0022forums_Topic\u0022 data-ipsquote-contentcommentid=\u00222862755\u0022 data-ipsquote-contentid=\u0022152503\u0022 data-ipsquote-contenttype=\u0022forums\u0022 data-ipsquote-timestamp=\u00221479969921\u0022 data-ipsquote-userid=\u0022165712\u0022 data-ipsquote-username=\u0022DrLicor\u0022\u003E\n\u003Cdiv class=\u0022ipsQuote_citation\u0022\u003E\n17 hours ago, DrLicor said:\n\u003C/div\u003E\n\u003Cdiv class=\u0022ipsQuote_contents\u0022\u003E\n\u003Cp\u003E\n\u00A0\n\u003C/p\u003E\n\u003Ciframe data-embedcontent=\u0022\u0022 frameborder=\u00220\u0022 src=\u0022https://forum.kerbalspaceprogram.com/index.php?/topic/31013-scenariotetrahedral-satellite-configuration-4-sat-full-surface-coverage/\u0026amp;do=embed\u0022\u003E\u003C/iframe\u003E\n\u003Cp\u003E\n\u00A0\n\u003C/p\u003E\n\u003C/div\u003E\n\u003C/blockquote\u003E\n\u003Cp\u003E\n\u00A0\n\u003C/p\u003E\n\u003Cp\u003E\nThat thread is actually what got me started on this. For my Minmus network I inserted a carrier into high (final apsis) equatorial orbit and delivered relays into inclined orbits without modifying orbital period. Then as they reached the intended final apsis after (up to) one go around I performed burns to place the first into final orbit and the others into individual\u00A0phase correction orbits (to both correct the different periods between release and swap the phase of one pair). The remaining three burned into\u00A0final orbit after one more orbit. My Mun network was used to debug this procedure. My polar scan-sat will act as a pace keeper if I need to correct phase later.\n\u003C/p\u003E\n\u003Cp\u003E\nThis system doesn\u0027t work efficiently for Kerbin because there is a greater \u003Cabbr title=\u0022Delta-V\u0022\u003EdV\u003C/abbr\u003E cost between\u00A0low and\u00A0high orbits. Inclination changes in low orbit are also painfully expensive. If I could have a high degree of confidence in launch efficiency, I could launch strait from Kerbin into an inclined intermediate orbit, thus my question. I am starting to think the best approach would be a \u003Cabbr title=\u0022Low Kerbin Orbit\u0022\u003ELKO\u003C/abbr\u003E seed ship, and have the relays boost themselves up to a \u003Cabbr title=\u0022High Kerbin Orbit\u0022\u003EHKO\u003C/abbr\u003E intermediate orbit and perform the plane change during the second Hohmann burn.\n\u003C/p\u003E\n\u003Cspan class=\u0022ipsType_reset ipsType_medium ipsType_light\u0022 data-excludequote=\u0022\u0022\u003E\n\u003Cstrong\u003EEdited \u003Ctime datetime=\u00222016-11-25T00:11:52Z\u0022 title=\u002211/25/2016 12:11  AM\u0022 data-short=\u00227 yr\u0022\u003ENovember 25, 2016\u003C/time\u003E by ajburges\u003C/strong\u003E\n\u003C/span\u003E\n"}]}